[{"OBJECT_NAME":"STARLINK-34584","OBJECT_ID":"2025-142B","EPOCH":"2026-03-09T22:50:54.276576","MEAN_MOTION":14.98330275,"ECCENTRICITY":0.00023523,"INCLINATION":70.0013,"RA_OF_ASC_NODE":313.6509,"ARG_OF_PERICENTER":269.9726,"MEAN_ANOMALY":90.1163,"EPHEMERIS_TYPE":0,"CLASSIFICATION_TYPE":"U","NORAD_CAT_ID":64697,"ELEMENT_SET_NO":999,"REV_AT_EPOCH":3952,"BSTAR":0.00018884204,"MEAN_MOTION_DOT":2.161e-5,"MEAN_MOTION_DDOT":0},{"OBJECT_NAME":"NOAA 17 DEB","OBJECT_ID":"2002-032CQ","EPOCH":"2026-03-08T13:16:06.343680","MEAN_MOTION":14.94423569,"ECCENTRICITY":0.00133771,"INCLINATION":98.6934,"RA_OF_ASC_NODE":102.7142,"ARG_OF_PERICENTER":224.1091,"MEAN_ANOMALY":135.9061,"EPHEMERIS_TYPE":0,"CLASSIFICATION_TYPE":"U","NORAD_CAT_ID":48755,"ELEMENT_SET_NO":999,"REV_AT_EPOCH":26185,"BSTAR":0.0050463698,"MEAN_MOTION_DOT":0.00054808,"MEAN_MOTION_DDOT":0}]
